QIANFAN-33              
1 61566U 24185Q   25295.53056403  .00000639  00000+0  45307-3 0  9992
2 61566  88.9754  84.5119 0008625 118.9719 241.2323 13.96483704 62013
QIANFAN-34              
1 61567U 24185R   25295.49179086  .00000774  00000+0  49648-3 0  9993
2 61567  88.9736  84.1479 0007440 121.1177 239.0734 14.02237046 62179
QIANFAN-35              
1 61568U 24185S   25295.47066684  .00001357  00000+0  54310-3 0  9991
2 61568  88.9761  82.8919 0008765  94.4518 265.7678 14.27835829 62863
QIANFAN-36              
1 61569U 24185T   25295.51511490  .00000189  00000+0  25427-3 0  9996
2 61569  88.9739  86.3763 0006085 174.8295 185.2923 13.55566603 60984
QIANFAN-37              
1 62238U 24232B   25295.51772330  .00000174  00000+0  25141-3 0  9992
2 62238  89.0028  46.4885 0001354 124.5329 235.5950 13.50973184 92252
QIANFAN-38              
1 62239U 24232C   25295.54234245  .00000155  00000+0  22155-3 0  9995
2 62239  89.0034  46.3984 0013684 349.7786  10.3084 13.50981601 92313
QIANFAN-39              
1 62240U 24232D   25295.52634742  .00000952  00000+0  39831-3 0  9995
2 62240  89.0030  43.1539 0014411 241.8036 118.1702 14.25303585 94094
QIANFAN-40              
1 62241U 24232E   25295.57523411  .00000168  00000+0  24225-3 0  9991
2 62241  89.0062  45.9654 0012947 358.5747   1.5364 13.50981223 92685
